{
  "norad_id": 56690,
  "name": "STARLINK-30124",
  "history": [
    {
      "epoch": "2026-03-28T05:22:26.961888Z",
      "apogee_km": 560.1119049105664,
      "perigee_km": 558.0336556045959,
      "latitude_deg": 9.494518780661314e-06,
      "longitude_deg": -92.14607548568841,
      "height_km": 558.8027522488849,
      "semi_major_axis_km": 6937.209780257581,
      "eccentricity": 0.00014979,
      "inclination_deg": 43.0034,
      "raan_deg": 174.1137,
      "arg_perigee_deg": 272.7399,
      "mean_anomaly_deg": 87.3272,
      "mean_motion_rev_day": 15.02538194
    }
  ]
}