{"fetched_at":"2026-03-29T02:12:04Z","count":15717,"tles":[{"name":"STARLINK-30124","line1":"1 56690U 23067C   26087.22392317  .00002118  00000+0  17178-3 0  9994","line2":"2 56690  43.0034 174.1137 0001497 272.7399  87.3272 15.02538194158445","category":"Starlink"}]}